H1 CPF  2  DGF 2026 07 14 11 195 01 starlette  NONE      
H2  7501001 1134     7646 2026 07 14 00 00 00 2026 07 21 00 00 00    30 1 1  0 0 0 1
H5  0.0762
H9
10 0 61237  82800.000000  0      -1519656.708       5797689.845       4308461.373
10 0 61237  82830.000000  0      -1654758.250       5675735.035       4412262.227
10 0 61237  82860.000000  0      -1788933.953       5549329.992       4512114.835
10 0 61237  82890.000000  0      -1922081.215       5418574.191       4607922.927
10 0 61237  82920.000000  0      -2054097.459       5283570.817       4699593.471
10 0 61237  82950.000000  0      -2184880.207       5144426.709       4787036.772
10 0 61237  82980.000000  0      -2314327.159       5001252.298       4870166.578
10 0 61237  83010.000000  0      -2442336.267       4854161.543       4948900.176
10 0 61237  83040.000000  0      -2568805.821       4703271.860       5023158.491
10 0 61237  83070.000000  0      -2693634.524       4548704.050       5092866.183
10 0 61237  83100.000000  0      -2816721.578       4390582.224       5157951.738
10 0 61237  83130.000000  0      -2937966.767       4229033.718       5218347.566
10 0 61237  83160.000000  0      -3057270.543       4064189.013       5273990.082
10 0 61237  83190.000000  0      -3174534.113       3896181.646       5324819.799
10 0 61237  83220.000000  0      -3289659.524       3725148.114       5370781.412
10 0 61237  83250.000000  0      -3402549.757       3551227.783       5411823.875
10 0 61237  83280.000000  0      -3513108.813       3374562.783       5447900.483
10 0 61237  83310.000000  0      -3621241.806       3195297.908       5478968.948
10 0 61237  83340.000000  0      -3726855.053       3013580.505       5504991.468
10 0 61237  83370.000000  0      -3829856.168       2829560.363       5525934.793
10 0 61237  83400.000000  0      -3930154.154       2643389.599       5541770.297
10 0 61237  83430.000000  0      -4027659.496       2455222.534       5552474.030
10 0 61237  83460.000000  0      -4122284.255       2265215.577       5558026.778
10 0 61237  83490.000000  0      -4213942.162       2073527.094       5558414.116
10 0 61237  83520.000000  0      -4302548.713       1880317.280       5553626.456
10 0 61237  83550.000000  0      -4388021.265       1685748.026       5543659.089
10 0 61237  83580.000000  0      -4470279.130       1489982.780       5528512.226
10 0 61237  83610.000000  0      -4549243.667       1293186.404       5508191.029
10 0 61237  83640.000000  0      -4624838.379       1095525.032       5482705.644
10 0 61237  83670.000000  0      -4696989.001        897165.920       5452071.216
10 0 61237  83700.000000  0      -4765623.593        698277.301       5416307.917
10 0 61237  83730.000000  0      -4830672.633        499028.228       5375440.950
10 0 61237  83760.000000  0      -4892069.104        299588.421       5329500.564
10 0 61237  83790.000000  0      -4949748.586        100128.111       5278522.048
10 0 61237  83820.000000  0      -5003649.343        -99182.127       5222545.736
10 0 61237  83850.000000  0      -5053712.410       -298171.531       5161616.989
10 0 61237  83880.000000  0      -5099881.679       -496669.318       5095786.186
10 0 61237  83910.000000  0      -5142103.980       -694504.856       5025108.693
10 0 61237  83940.000000  0      -5180329.166       -891507.829       4949644.843
10 0 61237  83970.000000  0      -5214510.189      -1087508.412       4869459.892
10 0 61237  84000.000000  0      -5244603.178      -1282337.441       4784623.982
10 0 61237  84030.000000  0      -5270567.510      -1475826.589       4695212.089
10 0 61237  84060.000000  0      -5292365.882      -1667808.539       4601303.968
10 0 61237  84090.000000  0      -5309964.379      -1858117.159       4502984.089
10 0 61237  84120.000000  0      -5323332.531      -2046587.679       4400341.570
10 0 61237  84150.000000  0      -5332443.381      -2233056.861       4293470.098
10 0 61237  84180.000000  0      -5337273.536      -2417363.181       4182467.851
10 0 61237  84210.000000  0      -5337803.222      -2599346.994       4067437.405
10 0 61237  84240.000000  0      -5334016.331      -2778850.713       3948485.637
10 0 61237  84270.000000  0      -5325900.468      -2955718.978       3825723.630
10 0 61237  84300.000000  0      -5313446.991      -3129798.828       3699266.556
10 0 61237  84330.000000  0      -5296651.044      -3300939.864       3569233.567
10 0 61237  84360.000000  0      -5275511.595      -3468994.423       3435747.670
10 0 61237  84390.000000  0      -5250031.455      -3633817.736       3298935.602
10 0 61237  84420.000000  0      -5220217.310      -3795268.089       3158927.695
10 0 61237  84450.000000  0      -5186079.728      -3953206.983       3015857.733
10 0 61237  84480.000000  0      -5147633.179      -4107499.286       2869862.812
10 0 61237  84510.000000  0      -5104896.038      -4258013.384       2721083.186
10 0 61237  84540.000000  0      -5057890.588      -4404621.325       2569662.110
10 0 61237  84570.000000  0      -5006643.012      -4547198.963       2415745.680
10 0 61237  84600.000000  0      -4951183.391      -4685626.091       2259482.671
10 0 61237  84630.000000  0      -4891545.681      -4819786.572       2101024.364
10 0 61237  84660.000000  0      -4827767.700      -4949568.466       1940524.371
10 0 61237  84690.000000  0      -4759891.099      -5074864.154       1778138.466
10 0 61237  84720.000000  0      -4687961.333      -5195570.444       1614024.396
10 0 61237  84750.000000  0      -4612027.626      -5311588.685       1448341.702
10 0 61237  84780.000000  0      -4532142.928      -5422824.870       1281251.531
10 0 61237  84810.000000  0      -4448363.869      -5529189.725       1112916.448
10 0 61237  84840.000000  0      -4360750.711      -5630598.803        943500.248
10 0 61237  84870.000000  0      -4269367.290      -5726972.562        773167.760
10 0 61237  84900.000000  0      -4174280.956      -5818236.442        602084.659
10 0 61237  84930.000000  0      -4075562.507      -5904320.931        430417.266
10 0 61237  84960.000000  0      -3973286.123      -5985161.628        258332.360
10 0 61237  84990.000000  0      -3867529.283      -6060699.293         85996.975
10 0 61237  85020.000000  0      -3758372.696      -6130879.894        -86421.788
10 0 61237  85050.000000  0      -3645900.211      -6195654.644       -258756.956
10 0 61237  85080.000000  0      -3530198.733      -6254980.030       -430841.881
10 0 61237  85110.000000  0      -3411358.132      -6308817.839       -602510.426
10 0 61237  85140.000000  0      -3289471.150      -6357135.167       -773597.158
10 0 61237  85170.000000  0      -3164633.300      -6399904.434       -943937.533
10 0 61237  85200.000000  0      -3036942.771      -6437103.379      -1113368.081
10 0 61237  85230.000000  0      -2906500.323      -6468715.056      -1281726.589
10 0 61237  85260.000000  0      -2773409.180      -6494727.818      -1448852.280
10 0 61237  85290.000000  0      -2637774.921      -6515135.300      -1614585.988
10 0 61237  85320.000000  0      -2499705.374      -6529936.386      -1778770.329
10 0 61237  85350.000000  0      -2359310.499      -6539135.183      -1941249.872
10 0 61237  85380.000000  0      -2216702.275      -6542740.970      -2101871.301
10 0 61237  85410.000000  0      -2071994.585      -6540768.156      -2260483.576
10 0 61237  85440.000000  0      -1925303.095      -6533236.226      -2416938.086
10 0 61237  85470.000000  0      -1776745.140      -6520169.676      -2571088.803
10 0 61237  85500.000000  0      -1626439.607      -6501597.952      -2722792.422
10 0 61237  85530.000000  0      -1474506.809      -6477555.375      -2871908.502
10 0 61237  85560.000000  0      -1321068.371      -6448081.065      -3018299.600
10 0 61237  85590.000000  0      -1166247.112      -6413218.860      -3161831.401
10 0 61237  85620.000000  0      -1010166.920      -6373017.232      -3302372.841
10 0 61237  85650.000000  0       -852952.638      -6327529.191      -3439796.221
10 0 61237  85680.000000  0       -694729.943      -6276812.195      -3573977.326
10 0 61237  85710.000000  0       -535625.228      -6220928.049      -3704795.525
10 0 61237  85740.000000  0       -375765.485      -6159942.802      -3832133.873
10 0 61237  85770.000000  0       -215278.191      -6093926.642      -3955879.208
10 0 61237  85800.000000  0        -54291.187      -6022953.786      -4075922.235
10 0 61237  85830.000000  0        107067.429      -5947102.369      -4192157.612
10 0 61237  85860.000000  0        268669.421      -5866454.329      -4304484.027
10 0 61237  85890.000000  0        430386.520      -5781095.291      -4412804.267
10 0 61237  85920.000000  0        592090.539      -5691114.447      -4517025.283
10 0 61237  85950.000000  0        753653.473      -5596604.438      -4617058.253
10 0 61237  85980.000000  0        914947.614      -5497661.229      -4712818.633
10 0 61237  86010.000000  0       1075845.645      -5394383.988      -4804226.209
10 0 61237  86040.000000  0       1236220.750      -5286874.964      -4891205.140
10 0 61237  86070.000000  0       1395946.708      -5175239.357      -4973683.994
10 0 61237  86100.000000  0       1554897.994      -5059585.196      -5051595.785
10 0 61237  86130.000000  0       1712949.873      -4940023.214      -5124878.000
10 0 61237  86160.000000  0       1869978.498      -4816666.719      -5193472.625
10 0 61237  86190.000000  0       2025860.998      -4689631.468      -5257326.162
10 0 61237  86220.000000  0       2180475.571      -4559035.538      -5316389.642
10 0 61237  86250.000000  0       2333701.574      -4424999.202      -5370618.634
10 0 61237  86280.000000  0       2485419.599      -4287644.799      -5419973.248
10 0 61237  86310.000000  0       2635511.563      -4147096.613      -5464418.136
10 0 61237  86340.000000  0       2783860.788      -4003480.744      -5503922.488
10 0 61237  86370.000000  0       2930352.074      -3856924.988      -5538460.020
99
